{"type":"FeatureCollection","features":[{"type":"Feature","properties":{"OBJECTID_12":1,"OBJECTID_1":1,"OBJECTID":1,"STATION":"Bush IAH Airport","ADDRESS":"3100 Terminal Road North","Legend":"Airport-IAH Division - Districts 21 - 3100 Terminal Rd. North - (281) 230-6800","AGENCY":"HPD","ZIP":"77032"},"geometry":{"type":"Point","coordinates":[-95.34582612004576,29.98726452830094]}},{"type":"Feature","properties":{"OBJECTID_12":2,"OBJECTID_1":2,"OBJECTID":2,"STATION":"Central","ADDRESS":"61 Riesner St","Legend":"Central Division - Districts 1 & 2 - 61 Riesner St. - (713) 247-4400","AGENCY":"HPD","ZIP":"77002"},"geometry":{"type":"Point","coordinates":[-95.37072534524621,29.764874534712266]}},{"type":"Feature","properties":{"OBJECTID_12":3,"OBJECTID_1":3,"OBJECTID":3,"STATION":"Clear Lake","ADDRESS":"2855 Bay Area Blvd","Legend":"Clear Lake Division - District 12 - 2855 Bay Area Blvd. - (832) 395-1777","AGENCY":"HPD","ZIP":"77058"},"geometry":{"type":"Point","coordinates":[-95.10646398910244,29.579539575345734]}},{"type":"Feature","properties":{"OBJECTID_12":4,"OBJECTID_1":4,"OBJECTID":4,"STATION":"Downtown","ADDRESS":"1900 Rusk St","Legend":"Downtown Division - Beat 1A10 -  1900 Rusk - (832) 394-0000","AGENCY":"HPD","ZIP":"77002"},"geometry":{"type":"Point","coordinates":[-95.35601230351529,29.7537251915145]}},{"type":"Feature","properties":{"OBJECTID_12":5,"OBJECTID_1":5,"OBJECTID":5,"STATION":"Eastside","ADDRESS":"7525 Sherman","Legend":"Eastside Division - District 11 - 7525 Sherman - (832) 395-1580","AGENCY":"HPD","ZIP":"77012"},"geometry":{"type":"Point","coordinates":[-95.29004563881391,29.73430910602781]}},{"type":"Feature","properties":{"OBJECTID_12":6,"OBJECTID_1":6,"OBJECTID":6,"STATION":"Kingwood","ADDRESS":"3915 Rustic Woods Dr","Legend":"Kingwood Division - District 24 - 3915 Rustic Wood Dr. - (832) 395-1800","AGENCY":"HPD","ZIP":"77339"},"geometry":{"type":"Point","coordinates":[-95.18825960279791,30.05463728306788]}},{"type":"Feature","properties":{"OBJECTID_12":7,"OBJECTID_1":7,"OBJECTID":7,"STATION":"Midwest","ADDRESS":"7277 Regency Square Blvd","Legend":"Midwest Division - District 18 - 7277 Regency Square Blvd - (832) 394-1200","AGENCY":"HPD","ZIP":"77036"},"geometry":{"type":"Point","coordinates":[-95.51153144965535,29.71667641699483]}},{"type":"Feature","properties":{"OBJECTID_12":8,"OBJECTID_1":8,"OBJECTID":8,"STATION":"North","ADDRESS":"9455 W Montgomery Rd","Legend":"North Division - Districts 3 & 6 - 9455 W. Montgomery - (832) 394 -3800","AGENCY":"HPD","ZIP":"77008"},"geometry":{"type":"Point","coordinates":[-95.44693854912131,29.87953416044567]}},{"type":"Feature","properties":{"OBJECTID_12":9,"OBJECTID_1":9,"OBJECTID":9,"STATION":"North Belt","ADDRESS":"100 Glenborough Dr","Legend":"North Belt Division - District 22 - 100 Glenborough Dr - (832) 394-4900","AGENCY":"HPD","ZIP":"77060"},"geometry":{"type":"Point","coordinates":[-95.4199241978885,29.951470683500876]}},{"type":"Feature","properties":{"OBJECTID_12":10,"OBJECTID_1":10,"OBJECTID":10,"STATION":"Northeast","ADDRESS":"8301 Ley Rd","Legend":"Northeast Division - Districts 7,  8, & 9 - 8301 Ley Rd. - (832) 395-1500","AGENCY":"HPD","ZIP":"77028"},"geometry":{"type":"Point","coordinates":[-95.27337679363983,29.832264083427045]}},{"type":"Feature","properties":{"OBJECTID_12":11,"OBJECTID_1":11,"OBJECTID":11,"STATION":"Northwest","ADDRESS":"6000 Teague Road","Legend":"Northwest Division - Districts 4 & 5 - 6000 Teague Rd. - (832) 394-5500","AGENCY":"HPD","ZIP":"77041"},"geometry":{"type":"Point","coordinates":[-95.5398015093995,29.857041766092582]}},{"type":"Feature","properties":{"OBJECTID_12":12,"OBJECTID_1":12,"OBJECTID":12,"STATION":"Police Headquarters","ADDRESS":"1200 Travis St","Legend":"Police Headquarters - 1200 Travis - (713) 308-1200","AGENCY":"HPD","ZIP":"77002"},"geometry":{"type":"Point","coordinates":[-95.36751369860829,29.755772339900115]}},{"type":"Feature","properties":{"OBJECTID_12":13,"OBJECTID_1":13,"OBJECTID":13,"STATION":"South Central","ADDRESS":"2202 St. Emanuel","Legend":"South Central Division - District 10 - 2202 St. Emanuel - (832) 394-0300","AGENCY":"HPD","ZIP":"77003"},"geometry":{"type":"Point","coordinates":[-95.3628099860077,29.742877655942078]}},{"type":"Feature","properties":{"OBJECTID_12":14,"OBJECTID_1":14,"OBJECTID":14,"STATION":"South Gessner","ADDRESS":"8605 Westplace Dr","Legend":"South Gessner Division - District 17 - 8605 West Place Dr. - (832) 394-4700","AGENCY":"HPD","ZIP":"77071"},"geometry":{"type":"Point","coordinates":[-95.52840400465658,29.64954381040569]}},{"type":"Feature","properties":{"OBJECTID_12":15,"OBJECTID_1":15,"OBJECTID":15,"STATION":"Southeast","ADDRESS":"8300 Mykawa","Legend":"Southeast Division - Districts 13 & 14 - 8300 Mykawa - (832) 394-1600","AGENCY":"HPD","ZIP":"77033"},"geometry":{"type":"Point","coordinates":[-95.31681111282082,29.657384448022874]}},{"type":"Feature","properties":{"OBJECTID_12":16,"OBJECTID_1":16,"OBJECTID":16,"STATION":"Southwest","ADDRESS":"13097 Nitida St","Legend":"Southwest Division - Districts 15 & 16 - 13097 Nitida St.  - (832) 394-0400","AGENCY":"HPD","ZIP":"77096"},"geometry":{"type":"Point","coordinates":[-95.45711234272345,29.63704163472314]}},{"type":"Feature","properties":{"OBJECTID_12":17,"OBJECTID_1":17,"OBJECTID":17,"STATION":"Westside","ADDRESS":"3203 S Dairy Ashford","Legend":"Westside Division - Districts 19 & 20 - 3203 S. Dairy Ashford - (832) 394-5600","AGENCY":"HPD","ZIP":"77082"},"geometry":{"type":"Point","coordinates":[-95.60486678242557,29.727476147598914]}},{"type":"Feature","properties":{"OBJECTID_12":18,"OBJECTID_1":18,"OBJECTID":18,"STATION":"William P. Hobby Airport","ADDRESS":"7800 Airport Blvd","Legend":"Airport-Hobby Division - Districts 23 - 7800 Airport Blvd - (713) 845-6800","AGENCY":"HPD","ZIP":"77061"},"geometry":{"type":"Point","coordinates":[-95.27665426232511,29.65408531758694]}}]}